#dP2018 11 21  0  0  0.00000000      96 __u+U ITR00 FIT  IAC
## 2028 259200.00000000   900.00000000 58443 0.0000000000000
+   90   C01C02C03C04C05C06C07C08C09C10C12C13C14E01E02E03E04
+        E05E07E08E09E11E12E14E18E19E21E24E25E26E27E30E31G01
+        G02G03G05G06G07G08G09G10G11G12G13G14G15G16G17G19G20
+        G21G22G23G24G25G26G27G28G29G30G31G32J01J02J03J07R01
+        R02R03R04R05R07R08R09R10R11R13R14R15R16R17R18R19R20
+        R21R22R23R24R26  0  0  0  0  0  0  0  0  0  0  0  0
++        12 12 12 12 12  8  8  8  8  8  7  8  8  6  6  6  6
++         6  6  6  6  6  6  6  7  6  6  6  6  6  6  6  6  3
++         3  3  3  3  3  3  3  3  3  3  3  3  3  3  3  3  3
++         3  3  3  3  3  3  3  3  3  3  3  3  9  9  9 16  5
++         5  5  6  6  5  5  5  5  5  5  5  5  5  5  5  5  5
++         5  5  5  5  9  0  0  0  0  0  0  0  0  0  0  0  0
%c M  cc GPS ccc cccc cccc cccc cccc ccccc ccccc ccccc ccccc
%c cc cc ccc ccc cccc cccc cccc cccc ccccc ccccc ccccc ccccc
%f  0.0000000  0.000000000  0.00000000000  0.000000000000000
%f  0.0000000  0.000000000  0.00000000000  0.000000000000000
%i    0    0    0    0      0      0      0      0         0
%i    0    0    0    0      0      0      0      0         0
/* INFORMATION & ANALYSIS CENTER (IAC) OF MCC   (RAPID DATA)
/* S/V CLOCKS ARE ALIGNED TO GPS & GLONASS TIME RESPECTIVELY
/* USING THE BROADCAST EPHEMERIS                            
/* PCV:IGS14_2022 OL/AL:FES2004  NONE     YN ORB:CoN CLK:CoN
*  2018 11 21  6 30  0.00000000
PC01 -32339.923761  27045.163806  -1050.757299    -86.607489
PC02   4389.987153  41905.277758    361.107214   -114.847119
PC03 -14778.085368  39504.892701   -530.653719    -26.285298
PC04 -39631.698598  14391.461461   -584.359968     -8.042583
PC05  21861.753441  36054.763955    619.595001    116.366439
PC06 -11802.079428  21868.956882  34349.203427     70.980310
PC07 -25297.822235  30243.782543 -15424.109121   -145.105166
PC08 -10570.462461  36728.625904 -17434.041204     38.722136
PC09   6020.185129  29458.567612  29864.779000    301.863937
PC10 -10204.734961  31071.318846 -26662.643463   -256.237099
PC12 -19561.744892 -14146.759572 -14019.553824    225.037151
PC13  -1517.576866  41850.656407  -3317.319104   -388.195091
PC14 -26006.205113   6389.423992   7805.461139    706.203874
PE01  24904.576856 -10793.072881 -11798.019835   -482.470865
PE02 -24909.258318  10813.658500  11780.048011     36.012688
PE03 -26679.575837    -76.628654  12830.284568   -102.070095
PE04  12050.112007 -13380.418618 -23495.495267   -163.027448
PE05 -25751.029441 -13560.872724  -5409.914309    155.850723
PE07   9763.320790  19067.123284  20424.327149    -79.309512
PE08 -11836.431143  13378.117497  23601.646416   6458.696247
PE09  -9985.760960 -18869.569682 -20510.178424   6611.460445
PE11  -5950.795392 -28978.800151   -861.157356   5710.191472
PE12   7378.900378 -22988.656881  17123.708977   5545.113803
PE14  21378.850595  13606.673929   7053.152724   6486.379578
PE18 -23812.772425  -1718.509344 -19613.326723   5740.361218
PE19  27345.955416   1537.657960 -11233.763491    -10.476808
PE21  16114.197053   6888.785904 -23848.862540   -505.539197
PE24   1561.363683 -19986.879403  21779.921540   6378.473358
PE25 -16100.001016  -6917.469096  23868.720215   1977.078857
PE26  15423.741269  17941.884949  17782.422047   5224.236821
PE27  -2090.001168  20225.422414 -21501.095706    586.154122
PE30 -18786.392869  21740.395167  -7100.591777   5332.914549
PE31  19027.644567 -21698.084653   6580.443016    978.353699
PG01  13395.605140 -18212.035193  13522.129041   -117.382003
PG02 -14603.713294  -4255.537047 -21202.242870    -64.517072
PG03  20906.664109 -13512.871801  -9201.684808    162.421127
PG05 -24895.865232   1466.714452  -9542.750623     -0.067108
PG06  -8079.454446 -18510.763978 -17206.775769    329.960336
PG07   5654.777859 -25690.604428    352.002623     84.658538
PG08  19256.205933    122.759212  18415.587738   -122.927120
PG09   1164.069573 -17713.239065 -19801.104591    490.602070
PG10   7237.209122  13573.183810  21705.541946    161.735331
PG11  11779.792623 -14099.188006  18705.943736   -697.551065
PG12 -23649.651335  10244.744069  -6210.364347    290.506828
PG13 -20578.931489  -8713.269608  14259.486321    -83.890700
PG14  18530.152595  19151.598923   -372.803046    -95.573038
PG15 -17730.697331   4570.163842  19118.937912   -339.060795
PG16  24597.162142   1494.133076 -10613.344926     -2.283255
PG17 -12950.786222 -21555.946126   9131.048513    -28.755180
PG19 -18544.352335 -18885.437055  -1500.712002   -381.638845
PG20  -2968.018108  17477.899414  19621.519871    518.969220
PG21  -1208.086880  26369.780932   4033.314028   -300.765242
PG22  24306.018140 -10572.811671  -1102.708549   -579.316367
PG23  10782.421333 -11084.831729 -21298.116749   -205.651829
PG24 -14734.659741  13985.407778  16811.733415    -58.447573
PG25 -14727.040751  15802.540629 -15471.696361   -679.921774
PG26  18440.398708   7002.197258 -17864.678986     45.492428
PG27  22155.370816   9845.849830  11075.834951    -21.000766
PG28  -3806.122959 -14511.472223  22544.882565    755.422202
PG29  -3806.927247  15948.757628 -20913.831993    331.758119
PG30  -1726.611923 -24142.513507  10755.293289     -7.967101
PG31   9576.163865  15947.199516 -18767.418965     78.240017
PG32  15439.998711  20468.290433   7168.280976   -349.151477
PJ01 -28670.684443  26713.582008  20649.352871   -264.822517
PJ02 -32138.246099  26624.841605  10858.152762     -0.808130
PJ03 -22573.412939  19303.122094 -25301.957948      1.083219
PJ07 -25391.492479  33652.695723     26.583477    247.566590
PR01 -13790.850661 -10981.896386 -18447.881403     35.284260
PR02 -25101.507797  -4325.616862   -656.155860    340.572702
PR03 -19523.813923   4557.120794  15774.244612    149.446077
PR04  -2044.498750  10801.028875  23025.340892    284.528042
PR05  15722.309019  10572.413416  17092.282501     15.942849
PR07  19279.123046  -4697.730264 -16024.893931    -52.041054
PR08   2883.594505 -10638.507948 -22960.178173     20.363928
PR09  15723.393271  -4191.805041 -19602.469784     39.758082
PR10  17961.652533 -16718.118639  -6829.925647     36.125172
PR11   9861.363357 -20624.970548  11288.508459    -47.733047
PR13 -15148.815504   3835.291930  20150.993162    -17.064473
PR14 -17939.020571  16820.042286   6821.373846     33.208402
PR15 -12972.529821  20758.356039  -6976.931048    -19.461995
PR16   3229.251661  12790.540490 -21824.365595    106.906324
PR17  -8236.263361   7868.799678 -22808.270681    181.891967
PR18   1351.563509  21392.996408 -13851.854813     27.385673
PR19   9649.088933  23442.811739   2789.024081    -61.706640
PR20  12954.964895  10860.747872  19126.446435   -359.779548
PR21   7903.402824  -8407.510737  22755.252432    -15.654671
PR22  -2600.019737 -22341.128383  11923.642036    -64.646098
PR23 -11601.465858 -21509.650064  -7325.236250    192.012282
PR24 -13057.082001  -9257.219255 -19881.835164   -174.008642
PR26  13292.722327  12120.715737  18083.046283      5.485725
EOF
